FALCON 9 DEB            
1 53298U 22086BJ  22212.43647956  .00440971  98421-4  55056-3 0  9995
2 53298  53.2205   8.8432 0063317  65.1683 295.5917 16.02950837  1112
2022-087A               
1 53299U 22087A   22212.30417289  .00001335  00000+0  63083-4 0  9995
2 53299  97.4044 286.6788 0013614 269.4089 128.7000 15.21087286   633
2022-087B               
1 53300U 22087B   22212.58420404  .00001931  00000+0  88843-4 0  9994
2 53300  97.4048 286.9566 0013666 276.7551 219.7838 15.21468260   678
2022-087C               
1 53301U 22087C   22212.45023713  .00001422  00000+0  66107-4 0  9997
2 53301  97.4049 286.8242 0014379 276.7331 207.4419 15.21526557   659
2022-087D               
1 53302U 22087D   22212.58348557  .00003708  00000+0  16632-3 0  9994
2 53302  97.4056 286.9574 0013512 283.0184 213.9184 15.21750890   674
2022-087E               
1 53303U 22087E   22212.44948042  .00002223  00000+0  10064-3 0  9999
2 53303  97.4086 286.8274 0014733 282.4294 202.4716 15.21847839   657
ZK-1A R/B               
1 53304U 22087F   22211.96788286  .00012067  00000+0  12772-3 0  9993
2 53304  97.2805 286.4390 0175112 299.1049  59.2767 15.47558335   586
1998-067TQ              
1 53305U 98067TQ  22211.83301698  .00018619  00000+0  32707-3 0  9998
2 53305  51.6418 120.3822 0004701  69.4760 290.6733 15.50542320  1430
RS4S                    
1 53306U 98067TR  22212.02564403  .00020635  00000+0  35963-3 0  9994
2 53306  51.6419 119.4195 0004340  73.8508 286.2959 15.50694147  1461
1998-067TS              
1 53307U 98067TS  22210.80105752  .00020662  00000+0  36048-3 0  9992
2 53307  51.6416 125.4904 0004291  61.6389 298.5033 15.50663443  1308
RS3S                    
1 53308U 98067TT  22206.86955286  .00011607  00000+0  20750-3 0  9991
2 53308  51.6418 144.9797 0004462  43.2801 316.8532 15.50481316   722
RS1S                    
1 53309U 98067TU  22211.70301964  .00021154  00000+0  36773-3 0  9999
2 53309  51.6415 121.0147 0004710  77.6181 282.5336 15.50748297  1426
RS5S                    
1 53310U 98067TV  22212.21844104  .00019029  00000+0  33138-3 0  9996
2 53310  51.6421 118.4569 0004327  80.3406 279.8072 15.50773747  1534
RS6S                    
1 53311U 98067TW  22208.25148738  .00008486  00000+0  15319-3 0  9992
2 53311  51.6407 138.1211 0003997  47.6338 112.8476 15.50612875   935
RS9S                    
1 53312U 98067TX  22206.80490273  .00031450  00000+0  54552-3 0  9995
2 53312  51.6422 145.2976 0005384  57.6491 302.4872 15.50571530   651
RS12S                   
1 53313U 98067TY  22212.15354388  .00020436  00000+0  35417-3 0  9998
2 53313  51.6418 118.7734 0004449  84.3269 275.8228 15.50859338  1536
ALE-DOM                 
1 53314U 19003K   22209.30803999  .01734718  00000+0  21843-1 0  9994
2 53314  97.1334 247.7788 0010613 347.5683  12.4450 15.56547651   130
2022-088A               
1 53316U 22088A   22211.72164886 -.00000038  00000+0  00000+0 0  9998
2 53316  34.9979 117.4824 0008302 273.7758  86.2015 15.24078715   170
2022-088B               
1 53317U 22088B   22211.78704037 -.00000038  00000+0  00000+0 0  9993
2 53317  34.9994 117.0717 0009619 277.9562  82.0257 15.24222818   184
2022-088C               
1 53318U 22088C   22211.78683093 -.00000038  00000+0  00000+0 0  9992
2 53318  34.9976 117.0657 0009579 284.6616  75.3123 15.24481956   185
2022-088D               
1 53319U 22088D   22211.78679480 -.00000038  00000+0  00000+0 0  9998
2 53319  34.9991 117.0678 0010135 285.5105  74.4598 15.24526985   187
2022-088E               
1 53320U 22088E   22211.78659695 -.00000038  00000+0  00000+0 0  9996
2 53320  34.9976 117.0648 0009878 294.1037  65.8766 15.24779250   198
